{
  "type": "FeatureCollection",
  "features": [
    {
      "type": "Feature",
      "properties": {
        "norad_id": 35616,
        "name": "IRIDIUM 33 DEB",
        "group": "iridium-33-debris",
        "lat": 62.26777145975503,
        "lon": 153.9285046261912,
        "alt_km": 609.034435991367,
        "timestamp": "2025-12-23T09:49:07.468371+00:00",
        "meta_object_name": "IRIDIUM 33 DEB",
        "meta_object_id": "1997-051QN",
        "meta_epoch": "2025-12-21T16:46:45.287328",
        "meta_mean_motion": 14.82015021,
        "meta_eccentricity": 0.00114093,
        "meta_inclination": 86.3545,
        "meta_ra_of_asc_node": 341.6744,
        "meta_arg_of_pericenter": 134.0095,
        "meta_mean_anomaly": 226.2069,
        "meta_ephemeris_type": 0,
        "meta_classification_type": "U",
        "meta_norad_cat_id": 35616,
        "meta_element_set_no": 999,
        "meta_rev_at_epoch": 87707,
        "meta_bstar": 0.0013754653,
        "meta_mean_motion_dot": 0.00010957,
        "meta_mean_motion_ddot": 0,
        "tle_line1": "1 35616U 97051QN  25355.69913527  .00010957  00000+0  13755-2 0  9999",
        "tle_line2": "2 35616  86.3545 341.6744 0011409 134.0095 226.2069 14.82015021877070"
      },
      "geometry": {
        "type": "Point",
        "coordinates": [
          153.9285046261912,
          62.26777145975503
        ]
      }
    },
    {
      "type": "Feature",
      "properties": {
        "norad_id": 35618,
        "name": "IRIDIUM 33 DEB",
        "group": "iridium-33-debris",
        "lat": -7.176485134329733,
        "lon": 169.30194015847948,
        "alt_km": 740.7705103657308,
        "timestamp": "2025-12-23T09:49:07.468381+00:00",
        "meta_object_name": "IRIDIUM 33 DEB",
        "meta_object_id": "1997-051QQ",
        "meta_epoch": "2025-12-21T17:16:24.492288",
        "meta_mean_motion": 14.52331103,
        "meta_eccentricity": 0.00284149,
        "meta_inclination": 86.341,
        "meta_ra_of_asc_node": 349.5786,
        "meta_arg_of_pericenter": 351.4344,
        "meta_mean_anomaly": 8.6373,
        "meta_ephemeris_type": 0,
        "meta_classification_type": "U",
        "meta_norad_cat_id": 35618,
        "meta_element_set_no": 999,
        "meta_rev_at_epoch": 65524,
        "meta_bstar": 0.00039049847,
        "meta_mean_motion_dot": 1.617e-05,
        "meta_mean_motion_ddot": 0,
        "tle_line1": "1 35618U 97051QQ  25355.71972792  .00001617  00000+0  39050-3 0  9993",
        "tle_line2": "2 35618  86.3410 349.5786 0028414 351.4344   8.6373 14.52331103655244"
      },
      "geometry": {
        "type": "Point",
        "coordinates": [
          169.30194015847948,
          -7.176485134329733
        ]
      }
    },
    {
      "type": "Feature",
      "properties": {
        "norad_id": 35620,
        "name": "IRIDIUM 33 DEB",
        "group": "iridium-33-debris",
        "lat": -9.804775970259428,
        "lon": -147.6707011277619,
        "alt_km": 826.6338776632765,
        "timestamp": "2025-12-23T09:49:07.468391+00:00",
        "meta_object_name": "IRIDIUM 33 DEB",
        "meta_object_id": "1997-051QS",
        "meta_epoch": "2025-12-22T20:30:28.552032",
        "meta_mean_motion": 14.38347661,
        "meta_eccentricity": 0.01386054,
        "meta_inclination": 86.3896,
        "meta_ra_of_asc_node": 213.1884,
        "meta_arg_of_pericenter": 225.2631,
        "meta_mean_anomaly": 133.722,
        "meta_ephemeris_type": 0,
        "meta_classification_type": "U",
        "meta_norad_cat_id": 35620,
        "meta_element_set_no": 999,
        "meta_rev_at_epoch": 60111,
        "meta_bstar": 0.0048145094,
        "meta_mean_motion_dot": 0.00016436,
        "meta_mean_motion_ddot": 0,
        "tle_line1": "1 35620U 97051QS  25356.85449713  .00016436  00000+0  48145-2 0  9993",
        "tle_line2": "2 35620  86.3896 213.1884 0138605 225.2631 133.7220 14.38347661601119"
      },
      "geometry": {
        "type": "Point",
        "coordinates": [
          -147.6707011277619,
          -9.804775970259428
        ]
      }
    },
    {
      "type": "Feature",
      "properties": {
        "norad_id": 35622,
        "name": "IRIDIUM 33 DEB",
        "group": "iridium-33-debris",
        "lat": 53.44505204421089,
        "lon": 73.20015548971544,
        "alt_km": 546.6459565877822,
        "timestamp": "2025-12-23T09:49:07.468401+00:00",
        "meta_object_name": "IRIDIUM 33 DEB",
        "meta_object_id": "1997-051QU",
        "meta_epoch": "2025-12-22T17:26:20.934816",
        "meta_mean_motion": 15.05728881,
        "meta_eccentricity": 0.00037836,
        "meta_inclination": 86.2011,
        "meta_ra_of_asc_node": 258.6786,
        "meta_arg_of_pericenter": 291.3821,
        "meta_mean_anomaly": 97.8635,
        "meta_ephemeris_type": 0,
        "meta_classification_type": "U",
        "meta_norad_cat_id": 35622,
        "meta_element_set_no": 999,
        "meta_rev_at_epoch": 87510,
        "meta_bstar": 0.0037158525,
        "meta_mean_motion_dot": 0.00054114,
        "meta_mean_motion_ddot": 0,
        "tle_line1": "1 35622U 97051QU  25356.72663119  .00054114  00000+0  37159-2 0  9997",
        "tle_line2": "2 35622  86.2011 258.6786 0003783 291.3821  97.8635 15.05728881875101"
      },
      "geometry": {
        "type": "Point",
        "coordinates": [
          73.20015548971544,
          53.44505204421089
        ]
      }
    },
    {
      "type": "Feature",
      "properties": {
        "norad_id": 35628,
        "name": "IRIDIUM 33 DEB",
        "group": "iridium-33-debris",
        "lat": -47.363874230197524,
        "lon": 0.34766619114793024,
        "alt_km": 668.5923151870129,
        "timestamp": "2025-12-23T09:49:07.468412+00:00",
        "meta_object_name": "IRIDIUM 33 DEB",
        "meta_object_id": "1997-051RA",
        "meta_epoch": "2025-12-20T06:45:55.793664",
        "meta_mean_motion": 14.67680924,
        "meta_eccentricity": 0.00096368,
        "meta_inclination": 86.3562,
        "meta_ra_of_asc_node": 5.7112,
        "meta_arg_of_pericenter": 314.2717,
        "meta_mean_anomaly": 45.7705,
        "meta_ephemeris_type": 0,
        "meta_classification_type": "U",
        "meta_norad_cat_id": 35628,
        "meta_element_set_no": 999,
        "meta_rev_at_epoch": 86557,
        "meta_bstar": 0.00085133469,
        "meta_mean_motion_dot": 4.868e-05,
        "meta_mean_motion_ddot": 0,
        "tle_line1": "1 35628U 97051RA  25354.28189576  .00004868  00000+0  85133-3 0  9999",
        "tle_line2": "2 35628  86.3562   5.7112 0009636 314.2717  45.7705 14.67680924865577"
      },
      "geometry": {
        "type": "Point",
        "coordinates": [
          0.34766619114793024,
          -47.363874230197524
        ]
      }
    },
    {
      "type": "Feature",
      "properties": {
        "norad_id": 35631,
        "name": "IRIDIUM 33 DEB",
        "group": "iridium-33-debris",
        "lat": 30.63419262383152,
        "lon": -165.77669078327293,
        "alt_km": 726.6350955548469,
        "timestamp": "2025-12-23T09:49:07.468422+00:00",
        "meta_object_name": "IRIDIUM 33 DEB",
        "meta_object_id": "1997-051RD",
        "meta_epoch": "2025-12-22T08:18:43.884000",
        "meta_mean_motion": 14.47336088,
        "meta_eccentricity": 0.00191901,
        "meta_inclination": 86.3657,
        "meta_ra_of_asc_node": 16.838,
        "meta_arg_of_pericenter": 89.5261,
        "meta_mean_anomaly": 285.5305,
        "meta_ephemeris_type": 0,
        "meta_classification_type": "U",
        "meta_norad_cat_id": 35631,
        "meta_element_set_no": 999,
        "meta_rev_at_epoch": 87336,
        "meta_bstar": 0.00033639063,
        "meta_mean_motion_dot": 1.254e-05,
        "meta_mean_motion_ddot": 0,
        "tle_line1": "1 35631U 97051RD  25356.34634125  .00001254  00000+0  33639-3 0  9997",
        "tle_line2": "2 35631  86.3657  16.8380 0019190  89.5261 285.5305 14.47336088873361"
      },
      "geometry": {
        "type": "Point",
        "coordinates": [
          -165.77669078327293,
          30.63419262383152
        ]
      }
    },
    {
      "type": "Feature",
      "properties": {
        "norad_id": 35680,
        "name": "IRIDIUM 33 DEB",
        "group": "iridium-33-debris",
        "lat": -9.067499675051879,
        "lon": -162.57730033842873,
        "alt_km": 763.2260337709804,
        "timestamp": "2025-12-23T09:49:07.468433+00:00",
        "meta_object_name": "IRIDIUM 33 DEB",
        "meta_object_id": "1997-051RJ",
        "meta_epoch": "2025-12-21T07:58:47.284608",
        "meta_mean_motion": 14.2104558,
        "meta_eccentricity": 0.01505558,
        "meta_inclination": 86.1025,
        "meta_ra_of_asc_node": 17.7185,
        "meta_arg_of_pericenter": 250.9856,
        "meta_mean_anomaly": 122.3959,
        "meta_ephemeris_type": 0,
        "meta_classification_type": "U",
        "meta_norad_cat_id": 35680,
        "meta_element_set_no": 999,
        "meta_rev_at_epoch": 60823,
        "meta_bstar": 0.0026505481,
        "meta_mean_motion_dot": 6.465e-05,
        "meta_mean_motion_ddot": 0,
        "tle_line1": "1 35680U 97051RJ  25355.33249172  .00006465  00000+0  26505-2 0  9995",
        "tle_line2": "2 35680  86.1025  17.7185 0150555 250.9856 122.3959 14.21045580608231"
      },
      "geometry": {
        "type": "Point",
        "coordinates": [
          -162.57730033842873,
          -9.067499675051879
        ]
      }
    }
  ]
}